PROBA-1                 
1 26958U 01049B   26196.21277715  .00001493  00000+0  99273-4 0  9990
2 26958  97.9599 205.7255 0055784  29.7841 330.6541 15.07616957347841
CUTE-1 (CO-55)          
1 27844U 03031E   26195.99572294  .00000138  00000+0  78473-4 0  9996
2 27844  98.6743 204.2053 0010829 103.2306 257.0082 14.24351484195639
CUBESAT XI-IV (CO-57)   
1 27848U 03031J   26195.99815787  .00000112  00000+0  68348-4 0  9999
2 27848  98.6775 203.8980 0010551 120.0621 240.1606 14.23634469195339
APRIZESAT 4             
1 35684U 09041D   26196.17348679  .00000322  00000+0  45241-4 0  9995
2 35684  98.1404 272.0508 0042229 229.5978 130.1548 14.83913710915519
APRIZESAT 3             
1 35686U 09041F   26195.98503282  .00000907  00000+0  83267-4 0  9997
2 35686  98.2099 350.5467 0060829 336.6255  23.2201 14.96310664920531
PROBA-2                 
1 36037U 09059B   26196.09449218  .00000068  00000+0  26492-4 0  9993
2 36037  98.2459  19.0616 0013026 189.0509 171.0456 14.54873663885580
APRIZESAT 5             
1 37792U 11044E   26195.77346726  .00000392  00000+0  56922-4 0  9994
2 37792  98.2449 129.5970 0050699 274.1000  85.4418 14.81127189802879
APRIZESAT 6             
1 37793U 11044F   26195.72035223  .00000369  00000+0  59580-4 0  9994
2 37793  98.2339 106.7799 0043103 359.7738  61.0492 14.76956350801217
PROBA-V                 
1 39159U 13021A   26195.88156176  .00000016  00000+0  25162-4 0  9995
2 39159  98.3606 173.1237 0005263  60.7221 299.4484 14.23603367685058
APRIZESAT 7             
1 39416U 13066A   26195.85969956  .00000450  00000+0  49891-4 0  9992
2 39416  97.7722 148.6847 0037202 118.3821 242.1157 14.91618710685352
APRIZESAT 8             
1 39425U 13066K   26195.85274641  .00000368  00000+0  45858-4 0  9999
2 39425  97.8230 142.9372 0045459 193.0108 166.9939 14.87696214683784
BUGSAT-1 (TITA)         
1 40014U 14033E   26196.22498928  .00002855  00000+0  15158-3 0  9990
2 40014  98.0439 290.4190 0029061  85.9009 274.5543 15.15880243660085
SAUDISAT 4              
1 40016U 14033G   26195.98185044  .00000226  00000+0  36579-4 0  9997
2 40016  97.7617 341.1609 0044277 344.7712  15.2164 14.79575485650180
APRIZESAT 9             
1 40018U 14033J   26196.17142966  .00000315  00000+0  53607-4 0  9997
2 40018  97.9094 328.6912 0067443 110.0132 250.8355 14.74252601647687
APRIZESAT 10            
1 40019U 14033K   26195.88172667  .00000293  00000+0  53941-4 0  9992
2 40019  97.9681 322.2283 0078712 184.3486 175.7046 14.70910693646328
TECHDEMOSAT-1 (TDS-1)   
1 40076U 14037H   26195.92605686  .00004430  00000+0  25050-3 0  9992
2 40076  98.3824 190.8983 0006880 159.5961 200.5544 15.13677222652424
TECHNOSAT               
1 42829U 17042E   26196.04010463  .00001743  00000+0  12629-3 0  9998
2 42829  97.4316 352.6447 0017444   4.0246 356.1118 15.05110623490893
FLYING LAPTOP           
1 42831U 17042G   26196.18006898  .00001807  00000+0  14435-3 0  9991
2 42831  97.4801 350.6592 0019704  32.5803 327.6633 15.01312154490658
HAWK-A                  
1 43765U 18099H   26196.10718698  .00004044  00000+0  16247-3 0  9990
2 43765  97.3897 247.9822 0034714 184.2471 175.8478 15.24964443417352
HAWK-B                  
1 43794U 18099AN  26196.09655297  .00003480  00000+0  14860-3 0  9997
2 43794  97.3948 247.3278 0031352 202.4031 157.5838 15.23114243417283
HAWK-C                  
1 43799U 18099AT  26196.15093461  .00004898  00000+0  17523-3 0  9991
2 43799  97.3874 249.0766 0040292 183.9581 176.1346 15.28490158418181
SALSAT                  
1 46495U 20068K   26196.00653126  .00004157  00000+0  14518-3 0  9999
2 46495  97.8854 200.7735 0009152 193.6321 166.4672 15.30170520319613
HAWK-2C                 
1 47502U 21006CT  26196.18660873  .00003724  00000+0  11192-3 0  9992
2 47502  97.2265 239.9414 0008659 100.8071 259.4148 15.34988981303799
HAWK-2A                 
1 47505U 21006CW  26196.12364323  .00004380  00000+0  13119-3 0  9990
2 47505  97.2308 240.5736 0008168 104.3316 255.8835 15.35005662303780
HAWK-2B                 
1 47508U 21006CZ  26196.11717251  .00004376  00000+0  13049-3 0  9991
2 47508  97.2176 238.8553 0008746 102.7915 257.4307 15.35135482303788
HAWK-3B                 
1 48931U 21059BE  26196.10022499  .00031875  00000+0  24625-3 0  9998
2 48931  97.6630  35.4965 0004459 198.1592 161.9512 15.71859941282239
HAWK-3C                 
1 48948U 21059BX  26196.09990824  .00030130  00000+0  23286-3 0  9995
2 48948  97.6743  41.2297 0004624 198.7902 161.3191 15.71859687282234
HAWK-3A                 
1 48957U 21059CG  26196.09979612  .00032277  00000+0  24931-3 0  9999
2 48957  97.6688  38.4121 0004588 200.8580 159.2496 15.71861573282233
HAWK-5C                 
1 52754U 22057Y   26196.15748927  .00010867  00000+0  18024-3 0  9995
2 52754  97.6613 357.6523 0002807 346.7516  13.3662 15.52324324230688
HAWK-5B                 
1 52756U 22057AA  26196.15730525  .00010744  00000+0  17824-3 0  9993
2 52756  97.6627 356.0058 0003484 332.1861  27.9204 15.52321159230681
